ONEWEB-0229             
1 48779U 21045N   24246.87015096 -.00000025  00000+0 -10050-3 0  9998
2 48779  87.9071  29.0024 0001570  98.5390 261.5918 13.15550230158644
ONEWEB-0228             
1 48780U 21045P   24246.90265076  .00000028  00000+0  40706-4 0  9992
2 48780  87.9065  28.9771 0001663  99.5087 260.6232 13.15547809158561
ONEWEB-0231             
1 48782U 21045R   24246.93195565  .00000101  00000+0  23363-3 0  9993
2 48782  87.9079  29.0231 0001575 105.8745 254.2559 13.15549281158584
ONEWEB-0234             
1 48783U 21045S   24246.87570683 -.00000089  00000+0 -27100-3 0  9995
2 48783  87.9070  28.9872 0003061  93.8779 266.2702 13.15549660159844
ONEWEB-0240             
1 48785U 21045U   24246.91531560  .00000150  00000+0  36523-3 0  9999
2 48785  87.9066  28.9639 0001832 110.5534 249.5793 13.15549610158648
ONEWEB-0246             
1 48786U 21045V   24246.90975028  .00000039  00000+0  69999-4 0  9990
2 48786  87.9068  28.9706 0001550  98.7380 261.3926 13.15552201158515
